STARLINK-30205
1 57408U 23102E   26061.16668981  .00067714  00000+0  43571-2 0  9998
2 57408  42.9993 289.7117 0002154 286.2776 130.9003 15.07513208  5673
